{
  "type": "FeatureCollection",
  "features": [
    {
      "type": "Feature",
      "properties": {
        "norad_id": 36036,
        "name": "SMOS",
        "group": "resource",
        "lat": -77.69352430524239,
        "lon": -130.36178104997438,
        "alt_km": 767.3388657045543,
        "timestamp": "2025-12-27T22:26:48.269770+00:00",
        "meta_object_name": "SMOS",
        "meta_object_id": "2009-059A",
        "meta_epoch": "2025-12-27T11:08:49.833024",
        "meta_mean_motion": 14.39754478,
        "meta_eccentricity": 0.0001035,
        "meta_inclination": 98.4382,
        "meta_ra_of_asc_node": 186.295,
        "meta_arg_of_pericenter": 83.831,
        "meta_mean_anomaly": 276.2996,
        "meta_ephemeris_type": 0,
        "meta_classification_type": "U",
        "meta_norad_cat_id": 36036,
        "meta_element_set_no": 999,
        "meta_rev_at_epoch": 84874,
        "meta_bstar": 0.00015515,
        "meta_mean_motion_dot": 4.43e-06,
        "meta_mean_motion_ddot": 0,
        "tle_line1": "1 36036U 09059A   25361.46446566  .00000443  00000+0  15515-3 0  9999",
        "tle_line2": "2 36036  98.4382 186.2950 0001035  83.8310 276.2996 14.39754478848741"
      },
      "geometry": {
        "type": "Point",
        "coordinates": [
          -130.36178104997438,
          -77.69352430524239
        ]
      }
    },
    {
      "type": "Feature",
      "properties": {
        "norad_id": 36110,
        "name": "YAOGAN-7",
        "group": "resource",
        "lat": 18.89975053088857,
        "lon": -119.13272992358954,
        "alt_km": 650.9083147793535,
        "timestamp": "2025-12-27T22:26:48.269780+00:00",
        "meta_object_name": "YAOGAN-7",
        "meta_object_id": "2009-069A",
        "meta_epoch": "2025-12-27T06:06:34.402176",
        "meta_mean_motion": 14.77753868,
        "meta_eccentricity": 0.0023547,
        "meta_inclination": 98.0293,
        "meta_ra_of_asc_node": 242.9593,
        "meta_arg_of_pericenter": 231.8851,
        "meta_mean_anomaly": 128.0236,
        "meta_ephemeris_type": 0,
        "meta_classification_type": "U",
        "meta_norad_cat_id": 36110,
        "meta_element_set_no": 999,
        "meta_rev_at_epoch": 86423,
        "meta_bstar": 0.00011125,
        "meta_mean_motion_dot": 7.48e-06,
        "meta_mean_motion_ddot": 0,
        "tle_line1": "1 36110U 09069A   25361.25456484  .00000748  00000+0  11125-3 0  9991",
        "tle_line2": "2 36110  98.0293 242.9593 0023547 231.8851 128.0236 14.77753868864238"
      },
      "geometry": {
        "type": "Point",
        "coordinates": [
          -119.13272992358954,
          18.89975053088857
        ]
      }
    },
    {
      "type": "Feature",
      "properties": {
        "norad_id": 36605,
        "name": "TANDEM-X",
        "group": "resource",
        "lat": 5.7963479275899115,
        "lon": 6.332944490138248,
        "alt_km": 510.4848670998008,
        "timestamp": "2025-12-27T22:26:48.269790+00:00",
        "meta_object_name": "TANDEM-X",
        "meta_object_id": "2010-030A",
        "meta_epoch": "2025-12-26T13:13:25.252608",
        "meta_mean_motion": 15.1915819,
        "meta_eccentricity": 0.0001776,
        "meta_inclination": 97.4455,
        "meta_ra_of_asc_node": 5.7293,
        "meta_arg_of_pericenter": 92.0278,
        "meta_mean_anomaly": 268.116,
        "meta_ephemeris_type": 0,
        "meta_classification_type": "U",
        "meta_norad_cat_id": 36605,
        "meta_element_set_no": 999,
        "meta_rev_at_epoch": 86043,
        "meta_bstar": 6.7415e-05,
        "meta_mean_motion_dot": 1.349e-05,
        "meta_mean_motion_ddot": 0,
        "tle_line1": "1 36605U 10030A   25360.55098672  .00001349  00000+0  67415-4 0  9995",
        "tle_line2": "2 36605  97.4455   5.7293 0001776  92.0278 268.1160 15.19158190860436"
      },
      "geometry": {
        "type": "Point",
        "coordinates": [
          6.332944490138248,
          5.7963479275899115
        ]
      }
    },
    {
      "type": "Feature",
      "properties": {
        "norad_id": 36795,
        "name": "CARTOSAT-2B",
        "group": "resource",
        "lat": 0.18522576971475818,
        "lon": 50.44454166866717,
        "alt_km": 628.7937609829441,
        "timestamp": "2025-12-27T22:26:48.269800+00:00",
        "meta_object_name": "CARTOSAT-2B",
        "meta_object_id": "2010-035A",
        "meta_epoch": "2025-12-27T11:04:40.893888",
        "meta_mean_motion": 14.78748623,
        "meta_eccentricity": 0.0012449,
        "meta_inclination": 97.7831,
        "meta_ra_of_asc_node": 50.0117,
        "meta_arg_of_pericenter": 32.9437,
        "meta_mean_anomaly": 327.2548,
        "meta_ephemeris_type": 0,
        "meta_classification_type": "U",
        "meta_norad_cat_id": 36795,
        "meta_element_set_no": 999,
        "meta_rev_at_epoch": 83447,
        "meta_bstar": 0.00016235,
        "meta_mean_motion_dot": 1.143e-05,
        "meta_mean_motion_ddot": 0,
        "tle_line1": "1 36795U 10035A   25361.46158442  .00001143  00000+0  16235-3 0  9998",
        "tle_line2": "2 36795  97.7831  50.0117 0012449  32.9437 327.2548 14.78748623834476"
      },
      "geometry": {
        "type": "Point",
        "coordinates": [
          50.44454166866717,
          0.18522576971475818
        ]
      }
    },
    {
      "type": "Feature",
      "properties": {
        "norad_id": 36834,
        "name": "YAOGAN-10",
        "group": "resource",
        "lat": 42.41331261198817,
        "lon": 14.340876214766515,
        "alt_km": 610.4821882602992,
        "timestamp": "2025-12-27T22:26:48.269810+00:00",
        "meta_object_name": "YAOGAN-10",
        "meta_object_id": "2010-038A",
        "meta_epoch": "2025-12-27T13:17:18.421152",
        "meta_mean_motion": 14.84663254,
        "meta_eccentricity": 0.000125,
        "meta_inclination": 97.9135,
        "meta_ra_of_asc_node": 21.2625,
        "meta_arg_of_pericenter": 80.1714,
        "meta_mean_anomaly": 84.538,
        "meta_ephemeris_type": 0,
        "meta_classification_type": "U",
        "meta_norad_cat_id": 36834,
        "meta_element_set_no": 999,
        "meta_rev_at_epoch": 83173,
        "meta_bstar": 0.00019898,
        "meta_mean_motion_dot": 1.629e-05,
        "meta_mean_motion_ddot": 0,
        "tle_line1": "1 36834U 10038A   25361.55368543  .00001629  00000+0  19898-3 0  9997",
        "tle_line2": "2 36834  97.9135  21.2625 0001250  80.1714  84.5380 14.84663254831730"
      },
      "geometry": {
        "type": "Point",
        "coordinates": [
          14.340876214766515,
          42.41331261198817
        ]
      }
    },
    {
      "type": "Feature",
      "properties": {
        "norad_id": 37216,
        "name": "COSMO-SKYMED 4",
        "group": "resource",
        "lat": -10.640680568242207,
        "lon": 1.5382263581018818,
        "alt_km": 627.1562947237244,
        "timestamp": "2025-12-27T22:26:48.269819+00:00",
        "meta_object_name": "COSMO-SKYMED 4",
        "meta_object_id": "2010-060A",
        "meta_epoch": "2025-12-27T11:52:04.763712",
        "meta_mean_motion": 14.82156126,
        "meta_eccentricity": 0.0001429,
        "meta_inclination": 97.881,
        "meta_ra_of_asc_node": 182.5955,
        "meta_arg_of_pericenter": 82.6601,
        "meta_mean_anomaly": 277.4774,
        "meta_ephemeris_type": 0,
        "meta_classification_type": "U",
        "meta_norad_cat_id": 37216,
        "meta_element_set_no": 999,
        "meta_rev_at_epoch": 81913,
        "meta_bstar": 8.9456e-05,
        "meta_mean_motion_dot": 6.6e-06,
        "meta_mean_motion_ddot": 0,
        "tle_line1": "1 37216U 10060A   25361.49449958  .00000660  00000+0  89456-4 0  9992",
        "tle_line2": "2 37216  97.8810 182.5955 0001429  82.6601 277.4774 14.82156126819134"
      },
      "geometry": {
        "type": "Point",
        "coordinates": [
          1.5382263581018818,
          -10.640680568242207
        ]
      }
    },
    {
      "type": "Feature",
      "properties": {
        "norad_id": 37387,
        "name": "RESOURCESAT-2",
        "group": "resource",
        "lat": 81.1157101350125,
        "lon": -16.22034036143591,
        "alt_km": 812.3524541286461,
        "timestamp": "2025-12-27T22:26:48.269829+00:00",
        "meta_object_name": "RESOURCESAT-2",
        "meta_object_id": "2011-015A",
        "meta_epoch": "2025-12-27T11:53:46.213728",
        "meta_mean_motion": 14.21595569,
        "meta_eccentricity": 0.0005704,
        "meta_inclination": 98.7858,
        "meta_ra_of_asc_node": 64.9799,
        "meta_arg_of_pericenter": 2.0375,
        "meta_mean_anomaly": 358.0824,
        "meta_ephemeris_type": 0,
        "meta_classification_type": "U",
        "meta_norad_cat_id": 37387,
        "meta_element_set_no": 999,
        "meta_rev_at_epoch": 76178,
        "meta_bstar": 8.0459e-05,
        "meta_mean_motion_dot": 1.32e-06,
        "meta_mean_motion_ddot": 0,
        "tle_line1": "1 37387U 11015A   25361.49567377  .00000132  00000+0  80459-4 0  9996",
        "tle_line2": "2 37387  98.7858  64.9799 0005704   2.0375 358.0824 14.21595569761788"
      },
      "geometry": {
        "type": "Point",
        "coordinates": [
          -16.22034036143591,
          81.1157101350125
        ]
      }
    }
  ]
}